{
    "links": {
        "self": "http://www.neowsapp.com/rest/v1/neo/54016682?api_key=iIulBulltgU6a56xZRHN4H3l9WmuAYTsLGpBGhQ2"
    },
    "id": "54016682",
    "neo_reference_id": "54016682",
    "name": "(2020 HG4)",
    "designation": "2020 HG4",
    "nasa_jpl_url": "http://ssd.jpl.nasa.gov/sbdb.cgi?sstr=54016682",
    "absolute_magnitude_h": 26.129,
    "estimated_diameter": {
        "kilometers": {
            "estimated_diameter_min": 0.0158035617,
            "estimated_diameter_max": 0.0353378383
        },
        "meters": {
            "estimated_diameter_min": 15.8035617096,
            "estimated_diameter_max": 35.3378382693
        },
        "miles": {
            "estimated_diameter_min": 0.0098198749,
            "estimated_diameter_max": 0.0219579079
        },
        "feet": {
            "estimated_diameter_min": 51.8489573993,
            "estimated_diameter_max": 115.9377933074
        }
    },
    "is_potentially_hazardous_asteroid": false,
    "close_approach_data": [
        {
            "close_approach_date": "2020-04-21",
            "close_approach_date_full": "2020-Apr-21 01:43",
            "epoch_date_close_approach": 1587433380000,
            "relative_velocity": {
                "kilometers_per_second": "8.1144718571",
                "kilometers_per_hour": "29212.0986857194",
                "miles_per_hour": "18151.2620972461"
            },
            "miss_distance": {
                "astronomical": "0.057658852",
                "lunar": "22.429293428",
                "kilometers": "8625641.44584524",
                "miles": "5359725.060694712"
            },
            "orbiting_body": "Earth"
        },
        {
            "close_approach_date": "2186-04-23",
            "close_approach_date_full": "2186-Apr-23 06:18",
            "epoch_date_close_approach": 6826054680000,
            "relative_velocity": {
                "kilometers_per_second": "8.120412651",
                "kilometers_per_hour": "29233.4855436638",
                "miles_per_hour": "18164.5510590615"
            },
            "miss_distance": {
                "astronomical": "0.0589952476",
                "lunar": "22.9491513164",
                "kilometers": "8825563.381082612",
                "miles": "5483950.7908275656"
            },
            "orbiting_body": "Earth"
        }
    ],
    "orbital_data": {
        "orbit_id": "3",
        "orbit_determination_date": "2020-05-03 06:05:49",
        "first_observation_date": "2020-04-19",
        "last_observation_date": "2020-05-01",
        "data_arc_in_days": 12,
        "observations_used": 30,
        "orbit_uncertainty": "8",
        "minimum_orbit_intersection": ".0574116",
        "jupiter_tisserand_invariant": "4.123",
        "epoch_osculation": "2458960.5",
        "eccentricity": ".3710333253336816",
        "semi_major_axis": "1.68338069678703",
        "inclination": "12.37526096836451",
        "ascending_node_longitude": "207.3579149735397",
        "orbital_period": "797.7594201070121",
        "perihelion_distance": "1.058790359055608",
        "perihelion_argument": "10.13359523447859",
        "aphelion_distance": "2.307971034518451",
        "perihelion_time": "2458966.809192870857",
        "mean_anomaly": "357.1528892341956",
        "mean_motion": ".4512638659305449",
        "equinox": "J2000",
        "orbit_class": {
            "orbit_class_type": "AMO",
            "orbit_class_description": "Near-Earth asteroid orbits similar to that of 1221 Amor",
            "orbit_class_range": "1.017 AU < q (perihelion) < 1.3 AU"
        }
    },
    "is_sentry_object": false
}